start=new Date('2021-12-20T00:00:00.000Z').valueOf();
sats=[{"SEMIMAJOR_AXIS":"6822.850","PERIAPSIS":"443.476","CLASSIFICATION_TYPE":"U","MEAN_MOTION_DDOT":"0.0000000000000","EPOCH":"2021-12-19T21:13:54.469344","REV_AT_EPOCH":"276","EPHEMERIS_TYPE":"0","RCS_SIZE":"LARGE","OBJECT_ID":"2021-115U","ECCENTRICITY":"0.00018170","TIME_SYSTEM":"UTC","ARG_OF_PERICENTER":"47.4947","NORAD_CAT_ID":"49742","REF_FRAME":"TEME","APOAPSIS":"445.955","OBJECT_TYPE":"PAYLOAD","MEAN_ANOMALY":"312.6213","LAUNCH_DATE":"2021-12-02","MEAN_ELEMENT_THEORY":"SGP4","INCLINATION":"53.2149","PERIOD":"93.478","OBJECT_NAME":"STARLINK-3202","CENTER_NAME":"EARTH","GP_ID":"192043448","MEAN_MOTION_DOT":"0.00008132","DECAY_DATE":null,"MEAN_MOTION":"15.40472626","ELEMENT_SET_NO":"999","FILE":"3244825","RA_OF_ASC_NODE":"237.4595","COUNTRY_CODE":"US","BSTAR":"0.00020726000000","SITE":"AFETR","TLE_LINE1":"1 49742U 21115U   21353.88465821  .00008132  00000-0  20726-3 0  9996","TLE_LINE2":"2 49742  53.2149 237.4595 0001817  47.4947 312.6213 15.40472626  2769"},{"MEAN_ANOMALY":"320.0221","INCLINATION":"53.2152","LAUNCH_DATE":"2021-12-02","MEAN_ELEMENT_THEORY":"SGP4","NORAD_CAT_ID":"49743","REF_FRAME":"TEME","APOAPSIS":"445.749","OBJECT_TYPE":"PAYLOAD","REV_AT_EPOCH":"276","EPHEMERIS_TYPE":"0","RCS_SIZE":"LARGE","ECCENTRICITY":"0.00015740","TIME_SYSTEM":"UTC","OBJECT_ID":"2021-115V","ARG_OF_PERICENTER":"40.0900","SEMIMAJOR_AXIS":"6822.810","PERIAPSIS":"443.601","CLASSIFICATION_TYPE":"U","MEAN_MOTION_DDOT":"0.0000000000000","EPOCH":"2021-12-19T21:13:05.407104","TLE_LINE1":"1 49743U 21115V   21353.88409036  .00018088  00000-0  44822-3 0  9997","TLE_LINE2":"2 49743  53.2152 237.4563 0001574  40.0900 320.0221 15.40486336  2762","BSTAR":"0.00044822000000","COUNTRY_CODE":"US","SITE":"AFETR","MEAN_MOTION":"15.40486336","ELEMENT_SET_NO":"999","FILE":"3244825","RA_OF_ASC_NODE":"237.4563","PERIOD":"93.477","OBJECT_NAME":"STARLINK-3239","CENTER_NAME":"EARTH","GP_ID":"192042436","MEAN_MOTION_DOT":"0.00018088","DECAY_DATE":null},{"OBJECT_ID":"2021-115W","ECCENTRICITY":"0.00017430","ARG_OF_PERICENTER":"43.6045","TIME_SYSTEM":"UTC","RCS_SIZE":"MEDIUM","EPHEMERIS_TYPE":"0","REV_AT_EPOCH":"387","EPOCH":"2021-12-19T22:00:00.999936","MEAN_MOTION_DDOT":"0.0000000000000","CLASSIFICATION_TYPE":"U","PERIAPSIS":"443.608","SEMIMAJOR_AXIS":"6822.933","MEAN_ELEMENT_THEORY":"SGP4","LAUNCH_DATE":"2021-12-02","INCLINATION":"53.2148","MEAN_ANOMALY":"132.0581","APOAPSIS":"445.987","OBJECT_TYPE":"PAYLOAD","NORAD_CAT_ID":"49744","REF_FRAME":"TEME","FILE":"3244802","RA_OF_ASC_NODE":"237.3139","ELEMENT_SET_NO":"999","MEAN_MOTION":"15.40444820","MEAN_MOTION_DOT":"0.00009885","DECAY_DATE":null,"GP_ID":"192018845","CENTER_NAME":"EARTH","PERIOD":"93.479","OBJECT_NAME":"STARLINK-3231","TLE_LINE2":"2 49744  53.2148 237.3139 0001743  43.6045 132.0581 15.40444820  3878","TLE_LINE1":"1 49744U 21115W   21353.91667824  .00009885  00000-0  24999-3 0  9991","SITE":"AFETR","COUNTRY_CODE":"US","BSTAR":"0.00024999000000"},{"ELEMENT_SET_NO":"999","MEAN_MOTION":"15.40477600","FILE":"3244804","RA_OF_ASC_NODE":"237.3085","GP_ID":"192018868","CENTER_NAME":"EARTH","PERIOD":"93.478","OBJECT_NAME":"STARLINK-3241","DECAY_DATE":null,"MEAN_MOTION_DOT":"-0.00016692","TLE_LINE1":"1 49745U 21115X   21353.91667824 -.00016692  00000-0 -39674-3 0  9994","TLE_LINE2":"2 49745  53.2151 237.3085 0001761  43.9353 134.8772 15.40477600  3872","BSTAR":"-0.00039674000000","COUNTRY_CODE":"US","SITE":"AFETR","EPHEMERIS_TYPE":"0","REV_AT_EPOCH":"387","ECCENTRICITY":"0.00017610","OBJECT_ID":"2021-115X","TIME_SYSTEM":"UTC","ARG_OF_PERICENTER":"43.9353","RCS_SIZE":"LARGE","PERIAPSIS":"443.499","CLASSIFICATION_TYPE":"U","SEMIMAJOR_AXIS":"6822.836","EPOCH":"2021-12-19T22:00:00.999936","MEAN_MOTION_DDOT":"0.0000000000000","MEAN_ANOMALY":"134.8772","INCLINATION":"53.2151","LAUNCH_DATE":"2021-12-02","MEAN_ELEMENT_THEORY":"SGP4","NORAD_CAT_ID":"49745","REF_FRAME":"TEME","APOAPSIS":"445.902","OBJECT_TYPE":"PAYLOAD"},{"RCS_SIZE":"LARGE","ECCENTRICITY":"0.00015960","TIME_SYSTEM":"UTC","OBJECT_ID":"2021-115Y","ARG_OF_PERICENTER":"49.4358","REV_AT_EPOCH":"276","EPHEMERIS_TYPE":"0","MEAN_MOTION_DDOT":"0.0000000000000","EPOCH":"2021-12-19T21:14:59.768736","SEMIMAJOR_AXIS":"6822.828","PERIAPSIS":"443.604","CLASSIFICATION_TYPE":"U","LAUNCH_DATE":"2021-12-02","MEAN_ELEMENT_THEORY":"SGP4","INCLINATION":"53.2147","MEAN_ANOMALY":"310.6787","APOAPSIS":"445.782","OBJECT_TYPE":"PAYLOAD","NORAD_CAT_ID":"49746","REF_FRAME":"TEME","FILE":"3244825","RA_OF_ASC_NODE":"237.4637","MEAN_MOTION":"15.40480146","ELEMENT_SET_NO":"999","DECAY_DATE":null,"MEAN_MOTION_DOT":"0.00011985","PERIOD":"93.477","OBJECT_NAME":"STARLINK-3233","GP_ID":"192043044","CENTER_NAME":"EARTH","TLE_LINE2":"2 49746  53.2147 237.4637 0001596  49.4358 310.6787 15.40480146  2760","TLE_LINE1":"1 49746U 21115Y   21353.88541399  .00011985  00000-0  30060-3 0  9997","SITE":"AFETR","COUNTRY_CODE":"US","BSTAR":"0.00030060000000"},{"TLE_LINE2":"2 49747  53.2151 237.3126 0001882  43.0983 133.6037 15.40484099  3875","TLE_LINE1":"1 49747U 21115Z   21353.91667824 -.00033557  00000-0 -80911-3 0  9995","SITE":"AFETR","COUNTRY_CODE":"US","BSTAR":"-0.00080911000000","RA_OF_ASC_NODE":"237.3126","FILE":"3244804","ELEMENT_SET_NO":"999","MEAN_MOTION":"15.40484099","MEAN_MOTION_DOT":"-0.00033557","DECAY_DATE":null,"GP_ID":"192018871","CENTER_NAME":"EARTH","OBJECT_NAME":"STARLINK-3247","PERIOD":"93.477","MEAN_ELEMENT_THEORY":"SGP4","LAUNCH_DATE":"2021-12-02","INCLINATION":"53.2151","MEAN_ANOMALY":"133.6037","OBJECT_TYPE":"PAYLOAD","APOAPSIS":"445.966","REF_FRAME":"TEME","NORAD_CAT_ID":"49747","ECCENTRICITY":"0.00018820","ARG_OF_PERICENTER":"43.0983","TIME_SYSTEM":"UTC","OBJECT_ID":"2021-115Z","RCS_SIZE":"LARGE","EPHEMERIS_TYPE":"0","REV_AT_EPOCH":"387","EPOCH":"2021-12-19T22:00:00.999936","MEAN_MOTION_DDOT":"0.0000000000000","CLASSIFICATION_TYPE":"U","PERIAPSIS":"443.398","SEMIMAJOR_AXIS":"6822.817"},{"TLE_LINE2":"2 49748  53.2146 237.4665 0001432  50.8121 309.3012 15.40472860  2765","TLE_LINE1":"1 49748U 21115AA  21353.88580007  .00007298  00000-0  18703-3 0  9990","SITE":"AFETR","COUNTRY_CODE":"US","BSTAR":"0.00018703000000","FILE":"3244825","RA_OF_ASC_NODE":"237.4665","MEAN_MOTION":"15.40472860","ELEMENT_SET_NO":"999","MEAN_MOTION_DOT":"0.00007298","DECAY_DATE":null,"PERIOD":"93.478","OBJECT_NAME":"STARLINK-3248","GP_ID":"192042234","CENTER_NAME":"EARTH","LAUNCH_DATE":"2021-12-02","MEAN_ELEMENT_THEORY":"SGP4","INCLINATION":"53.2146","MEAN_ANOMALY":"309.3012","APOAPSIS":"445.692","OBJECT_TYPE":"PAYLOAD","NORAD_CAT_ID":"49748","REF_FRAME":"TEME","RCS_SIZE":"LARGE","OBJECT_ID":"2021-115AA","TIME_SYSTEM":"UTC","ECCENTRICITY":"0.00014320","ARG_OF_PERICENTER":"50.8121","REV_AT_EPOCH":"276","EPHEMERIS_TYPE":"0","MEAN_MOTION_DDOT":"0.0000000000000","EPOCH":"2021-12-19T21:15:33.126048","SEMIMAJOR_AXIS":"6822.850","PERIAPSIS":"443.738","CLASSIFICATION_TYPE":"U"},{"MEAN_MOTION":"15.40459700","ELEMENT_SET_NO":"999","RA_OF_ASC_NODE":"237.4634","FILE":"3244825","OBJECT_NAME":"STARLINK-3250","PERIOD":"93.479","CENTER_NAME":"EARTH","GP_ID":"192042842","MEAN_MOTION_DOT":"0.00002773","DECAY_DATE":null,"TLE_LINE1":"1 49749U 21115AB  21353.88522405  .00002773  00000-0  77217-4 0  9998","TLE_LINE2":"2 49749  53.2163 237.4634 0001603  53.4057 306.7097 15.40459700  2760","BSTAR":"0.00007721700000","COUNTRY_CODE":"US","SITE":"AFETR","REV_AT_EPOCH":"276","EPHEMERIS_TYPE":"0","RCS_SIZE":"LARGE","TIME_SYSTEM":"UTC","OBJECT_ID":"2021-115AB","ECCENTRICITY":"0.00016030","ARG_OF_PERICENTER":"53.4057","SEMIMAJOR_AXIS":"6822.889","PERIAPSIS":"443.660","CLASSIFICATION_TYPE":"U","MEAN_MOTION_DDOT":"0.0000000000000","EPOCH":"2021-12-19T21:14:43.357920","MEAN_ANOMALY":"306.7097","INCLINATION":"53.2163","LAUNCH_DATE":"2021-12-02","MEAN_ELEMENT_THEORY":"SGP4","REF_FRAME":"TEME","NORAD_CAT_ID":"49749","OBJECT_TYPE":"PAYLOAD","APOAPSIS":"445.847"},{"MEAN_MOTION":"15.40464926","ELEMENT_SET_NO":"999","FILE":"3244804","RA_OF_ASC_NODE":"237.3261","PERIOD":"93.478","OBJECT_NAME":"STARLINK-3236","GP_ID":"192018566","CENTER_NAME":"EARTH","MEAN_MOTION_DOT":"-0.00010599","DECAY_DATE":null,"TLE_LINE1":"1 49750U 21115AC  21353.91667824 -.00010599  00000-0 -24825-3 0  9992","TLE_LINE2":"2 49750  53.2145 237.3261 0001661  49.9733 119.4137 15.40464926  3875","BSTAR":"-0.00024825000000","COUNTRY_CODE":"US","SITE":"AFETR","REV_AT_EPOCH":"387","EPHEMERIS_TYPE":"0","RCS_SIZE":"LARGE","ECCENTRICITY":"0.00016610","OBJECT_ID":"2021-115AC","ARG_OF_PERICENTER":"49.9733","TIME_SYSTEM":"UTC","SEMIMAJOR_AXIS":"6822.873","PERIAPSIS":"443.605","CLASSIFICATION_TYPE":"U","MEAN_MOTION_DDOT":"0.0000000000000","EPOCH":"2021-12-19T22:00:00.999936","MEAN_ANOMALY":"119.4137","INCLINATION":"53.2145","LAUNCH_DATE":"2021-12-02","MEAN_ELEMENT_THEORY":"SGP4","NORAD_CAT_ID":"49750","REF_FRAME":"TEME","APOAPSIS":"445.871","OBJECT_TYPE":"PAYLOAD"},{"LAUNCH_DATE":"2021-12-02","MEAN_ELEMENT_THEORY":"SGP4","INCLINATION":"53.2151","MEAN_ANOMALY":"311.1965","APOAPSIS":"445.835","OBJECT_TYPE":"PAYLOAD","NORAD_CAT_ID":"49751","REF_FRAME":"TEME","OBJECT_ID":"2021-115AD","ECCENTRICITY":"0.00015980","TIME_SYSTEM":"UTC","ARG_OF_PERICENTER":"48.9178","RCS_SIZE":"LARGE","EPHEMERIS_TYPE":"0","REV_AT_EPOCH":"276","EPOCH":"2021-12-19T21:15:16.135488","MEAN_MOTION_DDOT":"0.0000000000000","PERIAPSIS":"443.655","CLASSIFICATION_TYPE":"U","SEMIMAJOR_AXIS":"6822.880","TLE_LINE2":"2 49751  53.2151 237.4653 0001598  48.9178 311.1965 15.40462653  2762","TLE_LINE1":"1 49751U 21115AD  21353.88560342  .00003667  00000-0  98918-4 0  9997","SITE":"AFETR","COUNTRY_CODE":"US","BSTAR":"0.00009891800000","FILE":"3244825","RA_OF_ASC_NODE":"237.4653","ELEMENT_SET_NO":"999","MEAN_MOTION":"15.40462653","MEAN_MOTION_DOT":"0.00003667","DECAY_DATE":null,"GP_ID":"192042437","CENTER_NAME":"EARTH","PERIOD":"93.478","OBJECT_NAME":"STARLINK-3229"}];
